[{"OBJECT_NAME":"STARLINK-3560","OBJECT_ID":"2022-022H","EPOCH":"2026-03-09T01:25:57.071712","MEAN_MOTION":15.08833754,"ECCENTRICITY":0.00013855,"INCLINATION":53.2181,"RA_OF_ASC_NODE":11.955,"ARG_OF_PERICENTER":97.902,"MEAN_ANOMALY":262.213,"EPHEMERIS_TYPE":0,"CLASSIFICATION_TYPE":"U","NORAD_CAT_ID":51859,"ELEMENT_SET_NO":999,"REV_AT_EPOCH":22306,"BSTAR":-5.9470896e-5,"MEAN_MOTION_DOT":-1.234e-5,"MEAN_MOTION_DDOT":0},{"OBJECT_NAME":"OBJECT J","OBJECT_ID":"2017-042J","EPOCH":"2026-03-09T23:17:19.167936","MEAN_MOTION":15.08203331,"ECCENTRICITY":0.00078186,"INCLINATION":97.4246,"RA_OF_ASC_NODE":235.0467,"ARG_OF_PERICENTER":81.5059,"MEAN_ANOMALY":278.7055,"EPHEMERIS_TYPE":0,"CLASSIFICATION_TYPE":"U","NORAD_CAT_ID":42833,"ELEMENT_SET_NO":999,"REV_AT_EPOCH":47205,"BSTAR":0.00039182004,"MEAN_MOTION_DOT":6.006e-5,"MEAN_MOTION_DDOT":0}]
